[{"OBJECT_NAME":"PCSAT (NO-44)","OBJECT_ID":"2001-043C","EPOCH":"2026-03-09T13:24:02.117376","MEAN_MOTION":14.31912221,"ECCENTRICITY":0.0007015,"INCLINATION":67.0506,"RA_OF_ASC_NODE":141.9526,"ARG_OF_PERICENTER":265.3804,"MEAN_ANOMALY":94.6497,"EPHEMERIS_TYPE":0,"CLASSIFICATION_TYPE":"U","NORAD_CAT_ID":26931,"ELEMENT_SET_NO":999,"REV_AT_EPOCH":27618,"BSTAR":0.00011176,"MEAN_MOTION_DOT":2.17e-6,"MEAN_MOTION_DDOT":0},{"OBJECT_NAME":"CZ-6A DEB","OBJECT_ID":"2024-140BJ","EPOCH":"2026-03-09T13:41:02.757984","MEAN_MOTION":14.49857838,"ECCENTRICITY":0.0089055,"INCLINATION":88.9141,"RA_OF_ASC_NODE":276.9662,"ARG_OF_PERICENTER":248.3032,"MEAN_ANOMALY":110.8675,"EPHEMERIS_TYPE":0,"CLASSIFICATION_TYPE":"U","NORAD_CAT_ID":60657,"ELEMENT_SET_NO":999,"REV_AT_EPOCH":8368,"BSTAR":0.00022144,"MEAN_MOTION_DOT":9.15e-6,"MEAN_MOTION_DDOT":0}]
